IRIDIUM 63              
1 25286U 98021B   26027.31442829  .00000799  00000+0  26437-3 0  9992
2 25286  86.4013 348.0899 0001951  86.2244 273.9176 14.36785214456023
IRIDIUM 69              
1 25319U 98026A   26026.91312170  .00001032  00000+0  31333-3 0  9996
2 25319  86.3993   0.8370 0003496  43.6139 316.5337 14.41268889455289
IRIDIUM 71              
1 25320U 98026B   26027.31345619  .00000894  00000+0  27014-3 0  9993
2 25320  86.3999 355.3387 0004238  78.0418 282.1257 14.41361242455871
IRIDIUM 73              
1 25344U 98032C   26027.26178874  .00001110  00000+0  26957-3 0  9994
2 25344  86.4438 311.6494 0001915  68.3707 291.7703 14.52069877463076
IRIDIUM 82              
1 25467U 98051A   26026.42375972  .00065191  00000+0  10294-2 0  9991
2 25467  86.3604 358.5315 0057894 154.6064 205.8062 15.51304392458319
